BSAT-3C (JCSAT-110R)    
1 37776U 11041B   21323.52871644 -.00000336  00000+0  00000+0 0  9996
2 37776   0.0192  10.7257 0000711 290.4861  57.8751  1.00269706 33724
PAKSAT-1R               
1 37779U 11042A   21323.35952279  .00000168  00000+0  00000+0 0  9997
2 37779   0.0130 266.4270 0002797  27.7773 291.8352  1.00271589 37726
CHINASAT 1A (ZX 1A)     
1 37804U 11047A   21323.52656362 -.00000323  00000+0  00000+0 0  9998
2 37804   0.0165 340.1606 0002806 320.9728  77.0694  1.00271224 10602
SES-2                   
1 37809U 11049A   21323.46105734 -.00000181  00000+0  00000+0 0  9992
2 37809   0.0122 316.8065 0003231 288.8561 252.0485  1.00271774 37218
ARABSAT-5C              
1 37810U 11049B   21323.37063139  .00000138  00000+0  00000+0 0  9997
2 37810   0.0626 339.6758 0006476 230.8039   1.5924  1.00269446 37300
EUTELSAT 7 WEST A       
1 37816U 11051A   21323.37690220 -.00000045  00000+0  00000+0 0  9991
2 37816   0.0752  35.8861 0006112 181.7421 329.3899  1.00272656 37143
QUETZSAT 1              
1 37826U 11054A   21323.44011939 -.00000227  00000+0  00000+0 0  9999
2 37826   0.0580  87.8829 0002445 144.7492 267.5223  1.00272928 33148
INTELSAT 18 (IS-18)     
1 37834U 11056A   21323.53593861  .00000068  00000+0  00000+0 0  9991
2 37834   0.0337  37.8148 0002969 214.7713 179.1575  1.00270692 37059
EUTELSAT 16A            
1 37836U 11057A   21323.37063139  .00000118  00000+0  00000+0 0  9992
2 37836   0.0690   1.5292 0005140 241.5910 324.9598  1.00269381 29219
VIASAT-1                
1 37843U 11059A   21323.44392861 -.00000009  00000+0  00000+0 0  9997
2 37843   0.0184 295.3329 0002536 306.6590 221.4228  1.00270576 30572
ASIASAT 7               
1 37933U 11069A   21323.04048633 -.00000320  00000+0  00000+0 0  9995
2 37933   0.0189 190.5797 0001535  12.5740 335.2085  1.00269464 36700
BEIDOU 10               
1 37948U 11073A   21323.39687517 -.00000160  00000+0  00000+0 0  9996
2 37948  50.7020 291.7818 0078104 218.6897 145.1249  1.00258148 36659
LUCH 5A                 
1 37951U 11074B   21323.62730174 -.00000029  00000+0  00000+0 0  9999
2 37951   4.4941 101.8976 0002008 106.4966 243.3856  1.00274959 36437
NIGCOMSAT 1R            
1 38014U 11077A   21323.35952279  .00000159  00000+0  00000+0 0  9998
2 38014   0.0046   5.5465 0000313  45.5699 179.4322  1.00275290 36203
FENGYUN 2F              
1 38049U 12002A   21323.54419241 -.00000343  00000+0  00000+0 0  9999
2 38049   3.2821  81.1605 0003424  16.2644 269.0816  1.00283990 36136
WGS F4 (USA 233)        
1 38070U 12003A   21323.46778921 -.00000200  00000+0  00000+0 0  9990
2 38070   0.0173 306.0743 0000564 284.8132  84.6256  1.00268293 27390
SES-4                   
1 38087U 12007A   21323.35963826 -.00000153  00000+0  00000+0 0  9997
2 38087   0.0141  20.5848 0002579 211.6420 293.8821  1.00270723 35485
BEIDOU 11               
1 38091U 12008A   21323.59677323  .00000070  00000+0  00000+0 0  9990
2 38091   1.8934  71.0688 0003468 274.1632 347.2749  1.00276375 35728
MUOS-1                  
1 38093U 12009A   21323.50206598 -.00000113  00000+0  00000+0 0  9995
2 38093   2.7296  25.8957 0051322 355.8426 117.7994  1.00270878 35697
INTELSAT 22 (IS-22)     
1 38098U 12011A   21323.46447493 -.00000044  00000+0  00000+0 0  9992
2 38098   0.0017  82.6536 0002779 150.7671  64.6309  1.00271665 35060
APSTAR 7                
1 38107U 12013A   21323.46543432 -.00000087  00000+0  00000+0 0  9992
2 38107   0.0170 322.1263 0003328 292.0121  48.6245  1.00270309 35055
YAHSAT 1B               
1 38245U 12016A   21323.35952279  .00000141  00000+0  00000+0 0  9999
2 38245   0.0165 311.8835 0002311 303.7855 339.9575  1.00269153 28843
AEHF-2 (USA 235)        
1 38254U 12019A   21323.50311260 -.00000146  00000+0  00000+0 0  9994
2 38254   2.9189  58.7588 0003412 199.4516 247.4587  1.00273693 34105
JCSAT-13                
1 38331U 12023A   21323.47485389 -.00000342  00000+0  00000+0 0  9993
2 38331   0.0108  80.4164 0002536 153.1128 120.1670  1.00272987 34773
VINASAT-2               
1 38332U 12023B   21323.47642382 -.00000314  00000+0  00000+0 0  9991
2 38332   0.0100 317.1169 0002197 278.5247 126.4588  1.00273320 29906
NIMIQ 6                 
1 38342U 12026A   21323.50372314 -.00000159  00000+0  00000+0 0  9991
2 38342   0.0110 306.6013 0002738 287.0678 275.3455  1.00272126 33672
CHINASAT 2A (ZX 2A)     
1 38352U 12028A   21323.46970802 -.00000279  00000+0  00000+0 0  9998
2 38352   0.0171 344.8019 0003411 346.6372 354.6361  1.00273249 34622
INTELSAT 19 (IS-19)     
1 38356U 12030A   21323.52483926 -.00000042  00000+0  00000+0 0  9996
2 38356   0.0139 288.3228 0003036 289.2143 196.1902  1.00270674 33689
ECHOSTAR 17             
1 38551U 12035A   21323.56926899 -.00000060  00000+0  00000+0 0  9993
2 38551   0.0152 305.6129 0002116 294.4079 276.6180  1.00270177 34319
METEOSAT-10 (MSG-3)     
1 38552U 12035B   21323.30842080  .00000075  00000+0  00000+0 0  9990
2 38552   1.2825  25.5085 0002266 183.2270 330.1036  1.00275412 34103
SES-5                   
1 38652U 12036A   21323.30754861  .00000048  00000+0  00000+0 0  9991
2 38652   0.0535 294.5990 0002198 302.1349 297.5332  1.00270765 27748
TIANLIAN 1-03           
1 38730U 12040A   21323.59774443  .00000140  00000+0  00000+0 0  9995
2 38730   1.4887  94.1280 0002306 302.5438 257.7427  1.00270686 34237
INTELSAT 20 (IS-20)     
1 38740U 12043A   21323.22202035 -.00000011  00000+0  00000+0 0  9990
2 38740   0.0061 296.1051 0002560 245.7254  25.0969  1.00271267 33998
HYLAS 2                 
1 38741U 12043B   21323.36507719  .00000169  00000+0  00000+0 0  9996
2 38741   0.0109 337.7139 0002164 248.1539 355.2296  1.00270280 34013
INTELSAT 21 (IS-21)     
1 38749U 12045A   21323.41059966 -.00000270  00000+0  00000+0 0  9992
2 38749   0.0168 342.7905 0002243 259.6765 266.0379  1.00272578 33785
ASTRA 2F                
1 38778U 12051A   21323.36507719  .00000165  00000+0  00000+0 0  9991
2 38778   0.0647 243.6866 0004782 346.0533 348.5429  1.00273261 24375
GSAT-10                 
1 38779U 12051B   21323.53425809 -.00000151  00000+0  00000+0 0  9996
2 38779   0.0602 104.2545 0003806 139.9651  89.9374  1.00272210 33355
INTELSAT 23 (IS-23)     
1 38867U 12057A   21323.43953049 -.00000270  00000+0  00000+0 0  9993
2 38867   0.0107 289.5347 0001945 312.5808 281.7820  1.00268172 33197
BEIDOU 16               
1 38953U 12059A   21323.60183919 -.00000161  00000+0  00000+0 0  9990
2 38953   1.4712  84.2649 0009863 277.8576 357.4276  1.00273587 33290
LUCH 5B                 
1 38977U 12061A   21323.12410543 -.00000122  00000+0  00000+0 0  9999
2 38977   6.8406  64.1367 0002134 128.7594 253.8329  1.00272600 33425
YAMAL 300K              
1 38978U 12061B   21323.40065424  .00000085  00000+0  00000+0 0  9992
2 38978   0.0194 302.0187 0000325 313.0732 130.7469  1.00266481 32880
STAR ONE C3             
1 38991U 12062A   21323.44176701 -.00000234  00000+0  00000+0 0  9990
2 38991   0.0759  96.7830 0002611 150.6723 255.3064  1.00272565 33010
EUTELSAT 21B            
1 38992U 12062B   21323.37063139  .00000144  00000+0  00000+0 0  9992
2 38992   0.0690   1.9910 0002511 229.0748 342.6172  1.00269383 33080
ECHOSTAR 16             
1 39008U 12065A   21323.40892406 -.00000267  00000+0  00000+0 0  9992
2 39008   0.0163 314.5236 0002108 282.9733 266.8641  1.00269411 32878
CHINASAT 12 (ZX 12)     
1 39017U 12067A   21323.52932758 -.00000192  00000+0  00000+0 0  9999
2 39017   0.0184 320.4677 0003164 279.7294  96.6420  1.00270574 32758
EUTELSAT 70B            
1 39020U 12069A   21323.53261458 -.00000029  00000+0  00000+0 0  9997
2 39020   0.0669 343.9212 0007159 242.3456  94.7724  1.00271564 32856
YAMAL 402               
1 39022U 12070A   21323.38919997  .00000100  00000+0  00000+0 0  9991
2 39022   0.0056 350.5168 0002891 262.7895   0.3690  1.00273131 32849
SKYNET 5D               
1 39034U 12075A   21323.46063733  .00000113  00000+0  00000+0 0  9990
2 39034   0.0747 353.0594 0004176 241.9282  42.3431  1.00273775 32413
MEXSAT 3                
1 39035U 12075B   21323.44392804 -.00000011  00000+0  00000+0 0  9991
2 39035   0.0155 305.0376 0002950 291.7954 226.8921  1.00271921 32435
TDRS 11                 
1 39070U 13004A   21323.51174712  .00000091  00000+0  00000+0 0  9994
2 39070   3.1469 340.6619 0002584  78.6700   9.2454  1.00269955 29945
AMAZONAS 3              
1 39078U 13006A   21323.37712208 -.00000268  00000+0  00000+0 0  9993
2 39078   0.0252 221.8975 0005128  12.1208 259.3732  1.00275212 28159
AZERSPACE 1             
1 39079U 13006B   21323.45915462  .00000147  00000+0  00000+0 0  9995
2 39079   0.0136 334.6569 0002453 286.3073   9.0713  1.00274576 32051
SBIRS GEO-2 (USA 241)   
1 39120U 13011A   21323.31068847  .00000135  00000+0  00000+0 0  9996
2 39120   1.8727  10.0555 0002188 221.5362 319.5390  1.00272451 31789
EUTELSAT 117 WEST A     
1 39122U 13012A   21323.44311003  .00000002  00000+0  00000+0 0  9991
2 39122   0.0170 330.0687 0003040 266.1898 225.1764  1.00271169 31694
ANIK G1                 
1 39127U 13014A   21323.56820681 -.00000059  00000+0  00000+0 0  9991
2 39127   0.0072 231.5111 0002835 355.3245 289.2563  1.00272262 31508
CHINASAT 11 (ZX 11)     
1 39157U 13020A   21323.54140142 -.00000276  00000+0  00000+0 0  9997
2 39157   0.0353 270.5905 0001275 357.3026  83.7210  1.00272825 31391
EUTELSAT 7B             
1 39163U 13022A   21323.30798472  .00000063  00000+0  00000+0 0  9998
2 39163   0.0759  29.5327 0003251 284.0647 222.8466  1.00273046 31226
WGS F5 (USA 243)        
1 39168U 13024A   21323.38209556 -.00000270  00000+0  00000+0 0  9994
2 39168   0.0164 298.5598 0000574 343.4227 221.7105  1.00268958 30423
SES-6                   
1 39172U 13026A   21323.42218074 -.00000246  00000+0  00000+0 0  9994
2 39172   0.0189 320.6534 0002765 286.9085 282.6181  1.00272136 30972
